COMMENT,ORIGINATOR,NORAD_CAT_ID,OBJECT_NAME,OBJECT_TYPE,CLASSIFICATION_TYPE,INTLDES,EPOCH,EPOCH_MICROSECONDS,MEAN_MOTION,ECCENTRICITY,INCLINATION,RA_OF_ASC_NODE,ARG_OF_PERICENTER,MEAN_ANOMALY,EPHEMERIS_TYPE,ELEMENT_SET_NO,REV_AT_EPOCH,BSTAR,MEAN_MOTION_DOT,MEAN_MOTION_DDOT,FILE,TLE_LINE0,TLE_LINE1,TLE_LINE2,OBJECT_ID,OBJECT_NUMBER,SEMIMAJOR_AXIS,PERIOD,APOGEE,PERIGEE,DECAYED
GENERATED VIA SPACETRACK.ORG API,18 SPCS,28945,SPAINSAT,PAYLOAD,U,06007A,2024-02-28 15:28:04,747296,1.00270013,0.0003274,0.0601,258.7629,58.5645,42.6288,0,999,6579,0,-0.00000207,0,4201365,0 SPAINSAT,1 28945U 06007A   24059.64449939 -.00000207  00000-0  00000-0 0  9999,2 28945   0.0601 258.7629 0003274  58.5645  42.6288  1.00270013 65796,2006-007A,28945,42165.229,1436.122,35800.899,35773.289,0
GENERATED VIA SPACETRACK.ORG API,18 SPCS,28945,SPAINSAT,PAYLOAD,U,06007A,2024-02-28 15:28:04,814688,1.0026996,0.000324,0.0601,258.0917,60.5493,41.3162,0,999,6580,0,-0.00000207,0,4201938,0 SPAINSAT,1 28945U 06007A   24059.64450017 -.00000207  00000-0  00000-0 0  9998,2 28945   0.0601 258.0917 0003240  60.5493  41.3162  1.00269960 65804,2006-007A,28945,42165.244,1436.123,35800.770,35773.447,0
GENERATED VIA SPACETRACK.ORG API,18 SPCS,43162,SBIRS GEO 3 (USA 282),PAYLOAD,U,18009A,2024-02-28 14:29:16,635264,1.00272947,0.0001923,2.4962,331.6877,10.5627,233.5609,0,999,2242,0,0.00000138,0,4201083,0 SBIRS GEO 3 (USA 282),1 43162U 18009A   24059.60366476  .00000138  00000-0  00000-0 0  9994,2 43162   2.4962 331.6877 0001923  10.5627 233.5609  1.00272947 22422,2018-009A,43162,42164.406,1436.080,35794.379,35778.163,0
GENERATED VIA SPACETRACK.ORG API,18 SPCS,41937,SBIRS GEO 4 (USA 273),PAYLOAD,U,17004A,2024-02-28 14:26:02,937696,1.00272159,0.0002446,1.4579,349.38,349.4256,298.7978,0,999,2618,0,-0.00000134,0,4201083,0 SBIRS GEO 4 (USA 273),1 41937U 17004A   24059.60142289 -.00000134  00000-0  00000-0 0  9997,2 41937   1.4579 349.3800 0002446 349.4256 298.7978  1.00272159 26182,2017-004A,41937,42164.627,1436.092,35796.806,35776.179,0
GENERATED VIA SPACETRACK.ORG API,18 SPCS,29162,EUTE 113 WEST A(SATMEX 6,PAYLOAD,U,06020A,2024-02-28 14:05:30,882336,1.00274292,0.0003113,0.1947,99.9767,240.7431,275.6361,0,999,6505,0,-0.00000029,0,4201083,0 EUTE 113 WEST A(SATMEX 6,1 29162U 06020A   24059.58716299 -.00000029  00000-0  00000-0 0  9997,2 29162   0.1947  99.9767 0003113 240.7431 275.6361  1.00274292 65052,2006-020A,29162,42164.029,1436.061,35799.020,35772.769,0
GENERATED VIA SPACETRACK.ORG API,18 SPCS,25001,TITAN 3C TRANSTAGE DEB,DEBRIS,U,68081H,2024-02-28 13:44:54,329856,1.01696959,0.0068202,1.0355,346.2332,39.434,40.8125,0,999,10978,0,-0.00000199,0,4201083,0 TITAN 3C TRANSTAGE DEB,1 25001U 68081H   24059.57285104 -.00000199  00000-0  00000-0 0  9993,2 25001   1.0355 346.2332 0068202  39.4340  40.8125  1.01696959109789,1968-081H,25001,41769.877,1415.972,35676.621,35106.863,0
GENERATED VIA SPACETRACK.ORG API,18 SPCS,41384,IRNSS 1F,PAYLOAD,U,16015A,2024-02-28 13:36:08,17344,1.00273936,0.0020421,3.3155,122.0448,189.8983,82.3806,0,999,2924,0,0.00000168,0,4201083,0 IRNSS 1F,1 41384U 16015A   24059.56675946  .00000168  00000-0  00000-0 0  9996,2 41384   3.3155 122.0448 0020421 189.8983  82.3806  1.00273936 29240,2016-015A,41384,42164.129,1436.066,35872.097,35699.891,0
GENERATED VIA SPACETRACK.ORG API,18 SPCS,42749,ECHOSTAR 21,PAYLOAD,U,17032A,2024-02-28 13:29:44,560320,1.00270487,0.0002497,2.7315,317.5147,11.3844,41.654,0,999,2469,0,0.00000074,0,4201083,0 ECHOSTAR 21,1 42749U 17032A   24059.56232130  .00000074  00000-0  00000-0 0  9992,2 42749   2.7315 317.5147 0002497  11.3844  41.6540  1.00270487 24697,2017-032A,42749,42165.096,1436.115,35797.489,35776.432,0
GENERATED VIA SPACETRACK.ORG API,18 SPCS,33373,NIMIQ 4,PAYLOAD,U,08044A,2024-02-28 13:03:18,103392,1.00270574,0.0001801,0.0203,226.131,107.7764,297.7281,0,999,5656,0,-0.00000211,0,4201083,0 NIMIQ 4,1 33373U 08044A   24059.54395953 -.00000211  00000-0  00000-0 0  9993,2 33373   0.0203 226.1310 0001801 107.7764 297.7281  1.00270574 56567,2008-044A,33373,42165.071,1436.114,35794.530,35779.343,0
GENERATED VIA SPACETRACK.ORG API,18 SPCS,33373,NIMIQ 4,PAYLOAD,U,08044A,2024-02-28 13:03:18,103392,1.00270574,0.0001801,0.0203,226.131,107.7764,297.7281,0,999,5641,0,-0.00000211,0,4201193,0 NIMIQ 4,1 33373U 08044A   24059.54395953 -.00000211  00000-0  00000+0 0  9992,2 33373   0.0203 226.1310 0001801 107.7764 297.7281  1.00270574 56411,2008-044A,33373,42165.071,1436.114,35794.530,35779.343,0
GENERATED VIA SPACETRACK.ORG API,18 SPCS,44457,COSMOS 2539,PAYLOAD,U,19048A,2024-02-28 12:33:42,687072,1.00271493,0.0000426,0.0146,123.9396,319.1738,275.1273,0,999,1680,0,0.0000009,0,4201083,0 COSMOS 2539,1 44457U 19048A   24059.52341073  .00000090  00000-0  00000-0 0  9990,2 44457   0.0146 123.9396 0000426 319.1738 275.1273  1.00271493 16803,2019-048A,44457,42164.814,1436.101,35788.475,35784.883,0
GENERATED VIA SPACETRACK.ORG API,18 SPCS,44479,AMOS 17,PAYLOAD,U,19050A,2024-02-28 12:33:42,687072,1.00273587,0.00018,0.0205,133.9849,221.204,8.0429,0,999,1676,0,0.00000118,0,4200998,0 AMOS 17,1 44479U 19050A   24059.52341073  .00000118  00000-0  00000+0 0  9997,2 44479   0.0205 133.9849 0001800 221.2040   8.0429  1.00273587 16760,2019-050A,44479,42164.227,1436.071,35793.681,35778.502,0
GENERATED VIA SPACETRACK.ORG API,18 SPCS,38697,TITAN 3C TRANSTAGE DEB *,DEBRIS,U,68081X,2024-02-28 12:30:24,386976,1.0147077,0.035378,3.7523,34.3073,355.7258,4.2065,0,999,6633,0,-0.00000059,0,4201346,0 TITAN 3C TRANSTAGE DEB *,1 38697U 68081X   24059.52111559 -.00000059  00000-0  00000+0 0  9999,2 38697   3.7523  34.3073 0353780 355.7258   4.2065  1.01470770 66338,1968-081X,38697,41831.927,1419.128,36933.722,33973.862,0
GENERATED VIA SPACETRACK.ORG API,18 SPCS,38697,TITAN 3C TRANSTAGE DEB *,DEBRIS,U,68081X,2024-02-28 12:30:24,386976,1.0147077,0.035378,3.7523,34.3073,355.7258,4.2065,0,999,6634,0,-0.0000006,0,4201365,0 TITAN 3C TRANSTAGE DEB *,1 38697U 68081X   24059.52111559 -.00000060  00000-0  00000-0 0  9992,2 38697   3.7523  34.3073 0353780 355.7258   4.2065  1.01470770 66349,1968-081X,38697,41831.927,1419.128,36933.722,33973.862,0
GENERATED VIA SPACETRACK.ORG API,18 SPCS,41469,IRNSS 1G,PAYLOAD,U,16027A,2024-02-28 12:27:47,323008,1.00272477,0.000491,3.1969,123.3626,289.5725,61.3544,0,999,2875,0,-0.00000326,0,4201083,0 IRNSS 1G,1 41469U 16027A   24059.51929772 -.00000326  00000-0  00000-0 0  9994,2 41469   3.1969 123.3626 0004910 289.5725  61.3544  1.00272477 28754,2016-027A,41469,42164.538,1436.087,35807.106,35765.700,0
GENERATED VIA SPACETRACK.ORG API,18 SPCS,38699,TITAN 3C TRANSTAGE DEB,DEBRIS,U,68081Z,2024-02-28 12:24:48,780864,1.008502,0.0100036,1.3661,338.4722,344.5226,164.3913,0,999,4340,0,-0.00000215,0,4201083,0 TITAN 3C TRANSTAGE DEB,1 38699U 68081Z   24059.51723126 -.00000215  00000-0  00000-0 0  9994,2 38699   1.3661 338.4722 0100036 344.5226 164.3913  1.00850200 43403,1968-081Z,38699,42003.357,1427.860,36045.407,35205.037,0
GENERATED VIA SPACETRACK.ORG API,18 SPCS,20253,FLTSATCOM 8 (USA 46),PAYLOAD,U,89077A,2024-02-28 12:20:59,667936,1.00276965,0.0006703,12.668,356.2291,348.6296,124.0262,0,999,25218,0,-0.00000355,0,4200942,0 FLTSATCOM 8 (USA 46),1 20253U 89077A   24059.51457949 -.00000355  00000-0  00000+0 0  9990,2 20253  12.6680 356.2291 0006703 348.6296 124.0262  1.00276965252180,1989-077A,20253,42163.280,1436.023,35813.407,35756.883,0
GENERATED VIA SPACETRACK.ORG API,18 SPCS,20253,FLTSATCOM 8 (USA 46),PAYLOAD,U,89077A,2024-02-28 12:20:59,667936,1.00276965,0.0006703,12.668,356.2291,348.6296,124.0262,0,999,25220,0,-0.00000356,0,4201083,0 FLTSATCOM 8 (USA 46),1 20253U 89077A   24059.51457949 -.00000356  00000-0  00000-0 0  9992,2 20253  12.6680 356.2291 0006703 348.6296 124.0262  1.00276965252203,1989-077A,20253,42163.280,1436.023,35813.407,35756.883,0
GENERATED VIA SPACETRACK.ORG API,18 SPCS,8832,TITAN 3C TRANSTAGE DEB,DEBRIS,U,76023J,2024-02-28 12:14:07,830240,0.9826039,0.0137409,20.0923,53.3297,73.4331,337.5635,0,999,10935,0,-0.00000245,0,4201083,0 TITAN 3C TRANSTAGE DEB,1 08832U 76023J   24059.50981285 -.00000245  00000-0  00000-0 0  9999,2 08832  20.0923  53.3297 0137409  73.4331 337.5635  0.98260390109350,1976-023J,8832,42738.196,1465.494,36947.322,35772.800,0
GENERATED VIA SPACETRACK.ORG API,18 SPCS,23712,USA 115,PAYLOAD,U,95060A,2024-02-28 12:04:42,763008,1.00274434,0.0003649,13.7603,9.8049,314.0401,255.1099,0,999,2446,0,-0.00000009,0,4201365,0 USA 115,1 23712U 95060A   24059.50327272 -.00000009  00000-0  00000-0 0  9993,2 23712  13.7603   9.8049 0003649 314.0401 255.1099  1.00274434 24464,1995-060A,23712,42163.989,1436.059,35801.240,35770.469,0
GENERATED VIA SPACETRACK.ORG API,18 SPCS,33436,ASTRA 1M,PAYLOAD,U,08057A,2024-02-28 12:01:42,600864,1.00275237,0.0001261,0.0188,134.5969,288.2136,294.6407,0,999,3731,0,0.00000129,0,4201083,0 ASTRA 1M,1 33436U 08057A   24059.50118751  .00000129  00000-0  00000-0 0  9999,2 33436   0.0188 134.5969 0001261 288.2136 294.6407  1.00275237 37318,2008-057A,33436,42163.764,1436.047,35790.946,35780.312,0
GENERATED VIA SPACETRACK.ORG API,18 SPCS,29055,ASTRA 1KR,PAYLOAD,U,06012A,2024-02-28 12:01:42,600864,1.00272104,0.0003225,0.0902,279.3907,11.5994,66.4252,0,999,6532,0,0.00000128,0,4200947,0 ASTRA 1KR,1 29055U 06012A   24059.50118751  .00000128  00000-0  00000+0 0  9998,2 29055   0.0902 279.3907 0003225  11.5994  66.4252  1.00272104 65320,2006-012A,29055,42164.643,1436.092,35800.106,35772.909,0
GENERATED VIA SPACETRACK.ORG API,18 SPCS,23712,USA 115,PAYLOAD,U,95060A,2024-02-28 11:10:17,947200,1.00274431,0.0003651,13.7603,9.8052,313.9838,241.525,0,999,2446,0,-0.00000009,0,4201083,0 USA 115,1 23712U 95060A   24059.46548550 -.00000009  00000-0  00000-0 0  9992,2 23712  13.7603   9.8052 0003651 313.9838 241.5250  1.00274431 24468,1995-060A,23712,42163.990,1436.059,35801.249,35770.461,0
